ORBCOMM-X               
1 21576U 91050C   24262.15648519  .00001168  00000+0  36353-3 0  9999
2 21576  98.3812 327.8554 0002477 295.9685  64.1249 14.42742926742888
ORBCOMM FM01            
1 23545U 95017A   24262.51503366  .00013386  00000+0  16550-2 0  9995
2 23545  69.9683  28.3434 0005049 352.4829   7.6245 14.82895247572476
ORBCOMM FM02            
1 23546U 95017B   24262.57368248  .00014771  00000+0  18369-2 0  9999
2 23546  69.9683  47.8196 0006593 354.3082   5.7993 14.82614930571774
ORBCOMM FM08            
1 25112U 97084A   24262.24736699  .00005835  00000+0  17456-2 0  9996
2 25112  45.0131 231.3743 0008770 316.7688  43.2473 14.43574693402040
ORBCOMM FM10            
1 25113U 97084B   24262.40239224  .00005756  00000+0  17272-2 0  9995
2 25113  45.0141 232.6098 0006381 294.5435  65.4751 14.43455431577213
ORBCOMM FM11            
1 25114U 97084C   24262.29520615  .00004385  00000+0  13310-2 0  9996
2 25114  45.0128 233.3140 0007183 293.2796  66.7298 14.43279172402169
ORBCOMM FM12            
1 25115U 97084D   24262.39698299  .00001755  00000+0  55867-3 0  9994
2 25115  45.0145 232.5711 0006193 295.5503  64.4707 14.43248078401974
ORBCOMM FM09            
1 25116U 97084E   24262.41166335  .00005047  00000+0  15278-2 0  9998
2 25116  45.0139 233.2281 0007095 281.3759  78.6294 14.43199939402189
